CELESTIS-17 & SHERPA-FX1
1 47486U 21006CB  26068.64311433  .00007207  00000+0  24301-3 0  9993
2 47486  97.2397 112.1052 0006630 178.1385 181.9882 15.30994801284065
STARLINK-36541          
1 67509U 26012S   26068.07429746  .00037090  00000+0  13492-2 0  9998
2 67509  43.0043 318.2521 0002070 275.1888  84.8728 15.27612434  7664
