[{"OBJECT_NAME":"CELESTIS-17 & SHERPA-FX1","OBJECT_ID":"2021-006CB","EPOCH":"2026-03-09T15:26:05.078112","MEAN_MOTION":15.30994801,"ECCENTRICITY":0.000663,"INCLINATION":97.2397,"RA_OF_ASC_NODE":112.1052,"ARG_OF_PERICENTER":178.1385,"MEAN_ANOMALY":181.9882,"EPHEMERIS_TYPE":0,"CLASSIFICATION_TYPE":"U","NORAD_CAT_ID":47486,"ELEMENT_SET_NO":999,"REV_AT_EPOCH":28406,"BSTAR":0.00024301,"MEAN_MOTION_DOT":7.207e-5,"MEAN_MOTION_DDOT":0},{"OBJECT_NAME":"STARLINK-36541","OBJECT_ID":"2026-012S","EPOCH":"2026-03-09T01:46:59.300544","MEAN_MOTION":15.27612434,"ECCENTRICITY":0.00020701,"INCLINATION":43.0043,"RA_OF_ASC_NODE":318.2521,"ARG_OF_PERICENTER":275.1888,"MEAN_ANOMALY":84.8728,"EPHEMERIS_TYPE":0,"CLASSIFICATION_TYPE":"U","NORAD_CAT_ID":67509,"ELEMENT_SET_NO":999,"REV_AT_EPOCH":766,"BSTAR":0.0013492355,"MEAN_MOTION_DOT":0.0003709,"MEAN_MOTION_DDOT":0}]
